{
    "links": {
        "self": "http://www.neowsapp.com/rest/v1/neo/3787071?api_key=iIulBulltgU6a56xZRHN4H3l9WmuAYTsLGpBGhQ2"
    },
    "id": "3787071",
    "neo_reference_id": "3787071",
    "name": "(2017 UU)",
    "designation": "2017 UU",
    "nasa_jpl_url": "http://ssd.jpl.nasa.gov/sbdb.cgi?sstr=3787071",
    "absolute_magnitude_h": 26.4,
    "estimated_diameter": {
        "kilometers": {
            "estimated_diameter_min": 0.0139493823,
            "estimated_diameter_max": 0.0311917671
        },
        "meters": {
            "estimated_diameter_min": 13.9493822934,
            "estimated_diameter_max": 31.1917670523
        },
        "miles": {
            "estimated_diameter_min": 0.0086677416,
            "estimated_diameter_max": 0.0193816595
        },
        "feet": {
            "estimated_diameter_min": 45.7656914036,
            "estimated_diameter_max": 102.3351970157
        }
    },
    "is_potentially_hazardous_asteroid": false,
    "close_approach_data": [
        {
            "close_approach_date": "2017-10-14",
            "close_approach_date_full": "2017-Oct-14 07:11",
            "epoch_date_close_approach": 1507965060000,
            "relative_velocity": {
                "kilometers_per_second": "10.1209440885",
                "kilometers_per_hour": "36435.3987185698",
                "miles_per_hour": "22639.5398315469"
            },
            "miss_distance": {
                "astronomical": "0.0226187406",
                "lunar": "8.7986900934",
                "kilometers": "3383715.415842522",
                "miles": "2102543.2631779236"
            },
            "orbiting_body": "Earth"
        }
    ],
    "orbital_data": {
        "orbit_id": "4",
        "orbit_determination_date": "2017-12-11 06:20:46",
        "first_observation_date": "2017-10-17",
        "last_observation_date": "2017-10-23",
        "data_arc_in_days": 6,
        "observations_used": 39,
        "orbit_uncertainty": "8",
        "minimum_orbit_intersection": ".0165232",
        "jupiter_tisserand_invariant": "3.377",
        "epoch_osculation": "2458045.5",
        "eccentricity": ".569017930302726",
        "semi_major_axis": "2.263508334280115",
        "inclination": "6.072779716423875",
        "ascending_node_longitude": "25.39629785079817",
        "orbital_period": "1243.860205419329",
        "perihelion_distance": ".9755315066850733",
        "perihelion_argument": "328.4144836041461",
        "aphelion_distance": "3.551485161875157",
        "perihelion_time": "2458019.697742227095",
        "mean_anomaly": "7.467730503617459",
        "mean_motion": ".289421591294206",
        "equinox": "J2000",
        "orbit_class": {
            "orbit_class_type": "APO",
            "orbit_class_description": "Near-Earth asteroid orbits which cross the Earth’s orbit similar to that of 1862 Apollo",
            "orbit_class_range": "a (semi-major axis) > 1.0 AU; q (perihelion) < 1.017 AU"
        }
    },
    "is_sentry_object": false
}